[
    {
        "Altitude(m)": 559781.6704110904,
        "Argument of Periapsis(deg)": 0.026491964442854003,
        "Eccentricity": 0.0,
        "Inclination(deg)": 53.0,
        "Latitude(deg)": 52.62559946005527,
        "Longitude(deg)": -42.03454295726957,
        "Mean Anomaly(deg)": -263.26992852968965,
        "RAAN(deg)": 319.96057347411204,
        "Satellite Name": "Starlink Shell 1 1411",
        "Satellite Number": 1411,
        "Semi-Major Axis(m)": 6931778.249405717,
        "Time(s)": 760
    },
    {
        "Altitude(m)": 559758.7163907125,
        "Argument of Periapsis(deg)": 0.02684054292236524,
        "Eccentricity": 0.0,
        "Inclination(deg)": 53.0,
        "Latitude(deg)": 52.524415851555425,
        "Longitude(deg)": -41.0606929109935,
        "Mean Anomaly(deg)": -262.64309732613293,
        "RAAN(deg)": 319.9600547040346,
        "Satellite Name": "Starlink Shell 1 1411",
        "Satellite Number": 1411,
        "Semi-Major Axis(m)": 6931778.249405717,
        "Time(s)": 770
    },
    {
        "Altitude(m)": 559733.7787501408,
        "Argument of Periapsis(deg)": 0.027189121401876473,
        "Eccentricity": 0.0,
        "Inclination(deg)": 53.0,
        "Latitude(deg)": 52.41456927802991,
        "Longitude(deg)": -40.09169233714405,
        "Mean Anomaly(deg)": -262.0162661225762,
        "RAAN(deg)": 319.9595359339571,
        "Satellite Name": "Starlink Shell 1 1411",
        "Satellite Number": 1411,
        "Semi-Major Axis(m)": 6931778.249405717,
        "Time(s)": 780
    },
    {
        "Altitude(m)": 559706.8725245098,
        "Argument of Periapsis(deg)": 0.02753769988138771,
        "Eccentricity": 0.0,
        "Inclination(deg)": 53.0,
        "Latitude(deg)": 52.29613624573257,
        "Longitude(deg)": -39.12789050175807,
        "Mean Anomaly(deg)": -261.38943491901955,
        "RAAN(deg)": 319.95901716387965,
        "Satellite Name": "Starlink Shell 1 1411",
        "Satellite Number": 1411,
        "Semi-Major Axis(m)": 6931778.249405717,
        "Time(s)": 790
    },
    {
        "Altitude(m)": 559678.0139408199,
        "Argument of Periapsis(deg)": 0.02788627836089895,
        "Eccentricity": 0.0,
        "Inclination(deg)": 53.0,
        "Latitude(deg)": 52.16919825338459,
        "Longitude(deg)": -38.16962325947483,
        "Mean Anomaly(deg)": -260.76260371546283,
        "RAAN(deg)": 319.95849839380213,
        "Satellite Name": "Starlink Shell 1 1411",
        "Satellite Number": 1411,
        "Semi-Major Axis(m)": 6931778.249405717,
        "Time(s)": 800
    },
    {
        "Altitude(m)": 559647.220410049,
        "Argument of Periapsis(deg)": 0.02823485684041019,
        "Eccentricity": 0.0,
        "Inclination(deg)": 53.0,
        "Latitude(deg)": 52.03384153213289,
        "Longitude(deg)": -37.217211933401686,
        "Mean Anomaly(deg)": -260.1357725119061,
        "RAAN(deg)": 319.9579796237247,
        "Satellite Name": "Starlink Shell 1 1411",
        "Satellite Number": 1411,
        "Semi-Major Axis(m)": 6931778.249405717,
        "Time(s)": 810
    },
    {
        "Altitude(m)": 559614.5105186149,
        "Argument of Periapsis(deg)": 0.028583435319921423,
        "Eccentricity": 0.0,
        "Inclination(deg)": 53.0,
        "Latitude(deg)": 51.89015677651839,
        "Longitude(deg)": -36.27096228130719,
        "Mean Anomaly(deg)": -259.5089413083494,
        "RAAN(deg)": 319.9574608536472,
        "Satellite Name": "Starlink Shell 1 1411",
        "Satellite Number": 1411,
        "Semi-Major Axis(m)": 6931778.249405717,
        "Time(s)": 820
    },
    {
        "Altitude(m)": 559579.9040193092,
        "Argument of Periapsis(deg)": 0.028932013799432665,
        "Eccentricity": 0.0,
        "Inclination(deg)": 53.0,
        "Latitude(deg)": 51.738238868421966,
        "Longitude(deg)": -35.33116506254288,
        "Mean Anomaly(deg)": -258.8821101047926,
        "RAAN(deg)": 319.95694208356974,
        "Satellite Name": "Starlink Shell 1 1411",
        "Satellite Number": 1411,
        "Semi-Major Axis(m)": 6931778.249405717,
        "Time(s)": 830
    },
    {
        "Altitude(m)": 559543.4218216487,
        "Argument of Periapsis(deg)": 0.029280592278943897,
        "Eccentricity": 0.0,
        "Inclination(deg)": 53.0,
        "Latitude(deg)": 51.57818659572737,
        "Longitude(deg)": -34.39809517879611,
        "Mean Anomaly(deg)": -258.2552789012359,
        "RAAN(deg)": 319.9564233134923,
        "Satellite Name": "Starlink Shell 1 1411",
        "Satellite Number": 1411,
        "Semi-Major Axis(m)": 6931778.249405717,
        "Time(s)": 840
    },
    {
        "Altitude(m)": 559505.0859816445,
        "Argument of Periapsis(deg)": 0.029629170758455132,
        "Eccentricity": 0.0,
        "Inclination(deg)": 53.0,
        "Latitude(deg)": 51.41010236746082,
        "Longitude(deg)": -33.472010900192146,
        "Mean Anomaly(deg)": -257.62844769767923,
        "RAAN(deg)": 319.9559045434148,
        "Satellite Name": "Starlink Shell 1 1411",
        "Satellite Number": 1411,
        "Semi-Major Axis(m)": 6931778.249405717,
        "Time(s)": 850
    },
    {
        "Altitude(m)": 559464.919691011,
        "Argument of Periapsis(deg)": 0.02997774923796637,
        "Eccentricity": 0.0,
        "Inclination(deg)": 53.0,
        "Latitude(deg)": 51.234091927099115,
        "Longitude(deg)": -32.55315485554201,
        "Mean Anomaly(deg)": -257.00161649412246,
        "RAAN(deg)": 319.9553857733373,
        "Satellite Name": "Starlink Shell 1 1411",
        "Satellite Number": 1411,
        "Semi-Major Axis(m)": 6931778.249405717,
        "Time(s)": 860
    },
    {
        "Altitude(m)": 559422.947265839,
        "Argument of Periapsis(deg)": 0.030326327717477602,
        "Eccentricity": 0.0,
        "Inclination(deg)": 53.0,
        "Latitude(deg)": 51.05026406567346,
        "Longitude(deg)": -31.64175258149311,
        "Mean Anomaly(deg)": -256.37478529056574,
        "RAAN(deg)": 319.9548670032599,
        "Satellite Name": "Starlink Shell 1 1411",
        "Satellite Number": 1411,
        "Semi-Major Axis(m)": 6931778.249405717,
        "Time(s)": 870
    },
    {
        "Altitude(m)": 559379.1941346499,
        "Argument of Periapsis(deg)": 0.030674906196988847,
        "Eccentricity": 0.0,
        "Inclination(deg)": 53.0,
        "Latitude(deg)": 50.85873033619693,
        "Longitude(deg)": -30.738013670076683,
        "Mean Anomaly(deg)": -255.74795408700908,
        "RAAN(deg)": 319.9543482331824,
        "Satellite Name": "Starlink Shell 1 1411",
        "Satellite Number": 1411,
        "Semi-Major Axis(m)": 6931778.249405717,
        "Time(s)": 880
    },
    {
        "Altitude(m)": 559333.6868259889,
        "Argument of Periapsis(deg)": 0.031023484676500086,
        "Eccentricity": 0.0,
        "Inclination(deg)": 53.0,
        "Latitude(deg)": 50.65960477086027,
        "Longitude(deg)": -29.842131308323207,
        "Mean Anomaly(deg)": -255.1211228834524,
        "RAAN(deg)": 319.95382946310485,
        "Satellite Name": "Starlink Shell 1 1411",
        "Satellite Number": 1411,
        "Semi-Major Axis(m)": 6931778.249405717,
        "Time(s)": 890
    },
    {
        "Altitude(m)": 559286.4529553774,
        "Argument of Periapsis(deg)": 0.03137206315601132,
        "Eccentricity": 0.0,
        "Inclination(deg)": 53.0,
        "Latitude(deg)": 50.453003602327925,
        "Longitude(deg)": -28.95428188659196,
        "Mean Anomaly(deg)": -254.49429167989564,
        "RAAN(deg)": 319.95331069302745,
        "Satellite Name": "Starlink Shell 1 1411",
        "Satellite Number": 1411,
        "Semi-Major Axis(m)": 6931778.249405717,
        "Time(s)": 900
    },
    {
        "Altitude(m)": 559237.5212118066,
        "Argument of Periapsis(deg)": 0.03172064163552255,
        "Eccentricity": 0.0,
        "Inclination(deg)": 53.0,
        "Latitude(deg)": 50.23904499035385,
        "Longitude(deg)": -28.074626183822033,
        "Mean Anomaly(deg)": -253.86746047633892,
        "RAAN(deg)": 319.95279192295,
        "Satellite Name": "Starlink Shell 1 1411",
        "Satellite Number": 1411,
        "Semi-Major Axis(m)": 6931778.249405717,
        "Time(s)": 910
    },
    {
        "Altitude(m)": 559186.921343634,
        "Argument of Periapsis(deg)": 0.0320692201150338,
        "Eccentricity": 0.0,
        "Inclination(deg)": 53.0,
        "Latitude(deg)": 50.01784875482695,
        "Longitude(deg)": -27.203309099045896,
        "Mean Anomaly(deg)": -253.24062927278223,
        "RAAN(deg)": 319.95227315287246,
        "Satellite Name": "Starlink Shell 1 1411",
        "Satellite Number": 1411,
        "Semi-Major Axis(m)": 6931778.249405717,
        "Time(s)": 920
    },
    {
        "Altitude(m)": 559134.6841439973,
        "Argument of Periapsis(deg)": 0.032417798594545036,
        "Eccentricity": 0.0,
        "Inclination(deg)": 53.0,
        "Latitude(deg)": 49.78953611623204,
        "Longitude(deg)": -26.3404594369452,
        "Mean Anomaly(deg)": -252.61379806922548,
        "RAAN(deg)": 319.95175438279506,
        "Satellite Name": "Starlink Shell 1 1411",
        "Satellite Number": 1411,
        "Semi-Major Axis(m)": 6931778.249405717,
        "Time(s)": 930
    },
    {
        "Altitude(m)": 559080.8414356662,
        "Argument of Periapsis(deg)": 0.03276637707405627,
        "Eccentricity": 0.0,
        "Inclination(deg)": 53.0,
        "Latitude(deg)": 49.554229444389954,
        "Longitude(deg)": -25.486191255120808,
        "Mean Anomaly(deg)": -251.9869668656688,
        "RAAN(deg)": 319.95123561271754,
        "Satellite Name": "Starlink Shell 1 1411",
        "Satellite Number": 1411,
        "Semi-Major Axis(m)": 6931778.249405717,
        "Time(s)": 940
    }
]